SPACEBEE-68             
1 48630U 21006EW  21243.15008025  .00005375  00000-0  29011-3 0  9999
2 48630  97.2512 299.5476 0015869 186.0201 174.0844 15.15032232 33365
SPACEBEE-69             
1 48631U 21006EX  21243.15132606  .00005395  00000-0  29133-3 0  9990
2 48631  97.2513 299.5464 0015937 186.1484 173.9556 15.15011585 33360
SPACEBEE-70             
1 48632U 21006EY  21243.15461533  .00005463  00000-0  29533-3 0  9995
2 48632  97.2513 299.5422 0016096 186.2345 173.8690 15.14964256 33368
SPACEBEE-71             
1 48633U 21006EZ  21243.15805454  .00005602  00000-0  30317-3 0  9997
2 48633  97.2513 299.5381 0016293 186.3902 173.7125 15.14911696 33364
SPACEBEE-72             
1 48634U 21006FA  21243.16204540  .00005644  00000-0  30600-3 0  9999
2 48634  97.2514 299.5345 0016455 186.5148 173.5873 15.14844273 33364
SPACEBEE-73             
1 48635U 21006FB  21243.09919981  .00006328  00000-0  34301-3 0  9996
2 48635  97.2513 299.4674 0016664 186.9985 173.1018 15.14802790 33357
SPACEBEE-74             
1 48636U 21006FC  21243.10414472  .00006542  00000-0  35523-3 0  9999
2 48636  97.2512 299.4620 0016903 187.2647 172.8344 15.14723301 33351
SPACEBEE-75             
1 48637U 21006FD  21243.10937999  .00006148  00000-0  33476-3 0  9991
2 48637  97.2512 299.4558 0017193 187.4268 172.6713 15.14646122 33358
STARLINK-2758           
1 48638U 21044A   21243.25001157  .00010852  00000-0  74683-3 0  9990
2 48638  53.0538 330.2031 0001085 103.5606  70.2778 15.06374768  3609
STARLINK-2739           
1 48639U 21044B   21243.58334491  .00010914  00000-0  75078-3 0  9995
2 48639  53.0547 328.7120 0000994  99.8720 162.6984 15.06384019 15825
STARLINK-2736           
1 48640U 21044C   21243.50001157 -.00018205  00000-0 -12066-2 0  9999
2 48640  53.0536 329.0817 0000877 112.0988 238.2779 15.06395542 15742
STARLINK-2754           
1 48641U 21044D   21242.74483316 -.00002246  00000-0 -13200-3 0  9996
2 48641  53.0568 337.4767 0001173 117.3151 242.7958 15.06378283 14724
STARLINK-2646           
1 48642U 21044E   21243.42208906 -.00000940  00000-0 -44271-4 0  9995
2 48642  53.0557 334.4327 0000991 113.8204 246.2889 15.06389892 15663
STARLINK-2704           
1 48643U 21044F   21242.74114062 -.00002248  00000-0 -13213-3 0  9993
2 48643  53.0563 337.4917 0000970 131.0003 229.1070 15.06387367 14728
STARLINK-2695           
1 48644U 21044G   21243.46730223  .00024683  00000-0  16758-2 0  9998
2 48644  53.0555 334.2293 0001414 163.4077 196.6958 15.06274603 15672
STARLINK-2733           
1 48645U 21044H   21242.99914934  .00001868  00000-0  14425-3 0  9999
2 48645  53.0546 336.3323 0001076 130.2805 229.8278 15.06400433 14760
STARLINK-2732           
1 48646U 21044J   21242.99546709 -.00001823  00000-0 -10353-3 0  9990
2 48646  53.0561 336.3501 0000967 134.5368 225.5700 15.06391567 14765
STARLINK-2691           
1 48647U 21044K   21242.99179252 -.00001645  00000-0 -91588-4 0  9998
2 48647  53.0567 336.3702 0001134 146.2023 213.9039 15.06384899 14766
STARLINK-2521           
1 48648U 21044L   21242.99083801 -.00001719  00000-0 -96569-4 0  9999
2 48648  53.0568 336.3711 0001164 127.9197 232.1897 15.06391221 14761
STARLINK-2673           
1 48649U 21044M   21242.98809563 -.00001622  00000-0 -90068-4 0  9991
2 48649  53.0518 336.4231 0001134 127.5648 232.5444 15.06390643 14757
STARLINK-2672           
1 48650U 21044N   21242.98441213 -.00000101  00000-0  12106-4 0  9994
2 48650  53.0534 336.4074 0001128 152.4688 207.6361 15.06384214 14754
STARLINK-2731           
1 48651U 21044P   21243.44514627 -.00000339  00000-0 -38810-5 0  9992
2 48651  53.0554 334.3346 0001206 147.2896 212.8168 15.06394461 15665
STARLINK-2727           
1 48652U 21044Q   21243.44148199 -.00002325  00000-0 -13729-3 0  9997
2 48652  53.0547 334.3459 0001073 140.4232 219.6835 15.06383750 15669
STARLINK-2720           
1 48653U 21044R   21243.03970836 -.00002353  00000-0 -13918-3 0  9995
2 48653  53.0563 336.1521 0001054 141.4402 218.6662 15.06385085 14767
STARLINK-2651           
1 48654U 21044S   21243.43410850 -.00001215  00000-0 -62704-4 0  9999
2 48654  53.0576 334.3862 0001265 136.8291 223.2797 15.06389848 15727
STARLINK-2657           
1 48655U 21044T   21242.96599297 -.00003025  00000-0 -18434-3 0  9991
2 48655  53.0569 336.4846 0001250 142.8456 217.2620 15.06385404 14753
STARLINK-2701           
1 48656U 21044U   21242.96230988 -.00003450  00000-0 -21295-3 0  9992
2 48656  53.0568 336.4997 0000870 120.1398 239.9677 15.06382197 14750
STARLINK-2734           
1 48657U 21044V   21242.95861401 -.00002199  00000-0 -12882-3 0  9993
2 48657  53.0567 336.5160 0000841 131.3498 228.7563 15.06391592 14755
STARLINK-2647           
1 48658U 21044W   21242.95493246 -.00001924  00000-0 -11037-3 0  9998
2 48658  53.0576 336.5379 0001150 110.8770 249.2342 15.06381522 14752
STARLINK-2717           
1 48659U 21044X   21242.95124208 -.00001677  00000-0 -93772-4 0  9990
2 48659  53.0571 336.5512 0000871 131.2561 228.8503 15.06387919 14759
STARLINK-2688           
1 48660U 21044Y   21243.41197897 -.00001598  00000-0 -88428-4 0  9992
2 48660  53.0567 334.4815 0000975 118.4959 241.6128 15.06390795 15665
STARLINK-2708           
1 48661U 21044Z   21243.58334491  .00018029  00000-0  12270-2 0  9999
2 48661  53.0542 323.7101 0001174  96.8629 108.0813 15.06373619 15891
STARLINK-2726           
1 48662U 21044AA  21243.50001157 -.00016471  00000-0 -10898-2 0  9997
2 48662  53.0538 324.0852 0001135 100.3123  32.4460 15.06388302 15816
STARLINK-2667           
1 48663U 21044AB  21243.50001157 -.00015692  00000-0 -10372-2 0  9999
2 48663  53.0527 324.0815 0001079 100.9576  51.8119 15.06388686 15821
STARLINK-2709           
1 48664U 21044AC  21243.50001157 -.00014910  00000-0 -98452-3 0  9998
2 48664  53.0538 324.0844 0001159  92.6186  80.1517 15.06388032 15887
STARLINK-2653           
1 48665U 21044AD  21243.58334491  .00017821  00000-0  12134-2 0  9991
2 48665  53.0535 323.7097 0001145  88.1974 101.8116 15.06365125 15896
STARLINK-2666           
1 48666U 21044AE  21243.25001157  .00013132  00000-0  89940-3 0  9997
2 48666  53.0533 325.2106 0001185  81.9063 279.4298 15.06377303  3607
STARLINK-2735           
1 48667U 21044AF  21243.25001157  .00008000  00000-0  55561-3 0  9998
2 48667  53.0527 325.2013 0001036  90.9444 185.2983 15.06381606  3590
STARLINK-2738           
1 48668U 21044AG  21243.25001157  .00009253  00000-0  63951-3 0  9992
2 48668  53.0537 325.2038 0001227  99.9165 196.3491 15.06386120  3593
STARLINK-2707           
1 48669U 21044AH  21243.58334491  .00014827  00000-0  10129-2 0  9990
2 48669  53.0478 323.7660 0001211  76.4609 248.4558 15.06373704 15824
STARLINK-2763           
1 48670U 21044AJ  21243.25001157  .00012424  00000-0  85192-3 0  9990
2 48670  53.0481 325.2601 0001129  93.3876 242.8607 15.06382046  3597
STARLINK-2745           
1 48671U 21044AK  21243.25001157  .00012465  00000-0  85418-3 0  9997
2 48671  53.0523 325.2087 0001400  96.9422 259.3196 15.06401156  3603
STARLINK-2705           
1 48672U 21044AL  21243.25001157  .00013349  00000-0  91379-3 0  9993
2 48672  53.0538 325.2043 0001323  90.6589 285.5938 15.06383299  3603
STARLINK-2711           
1 48673U 21044AM  21243.25001157  .00013527  00000-0  92571-3 0  9997
2 48673  53.0552 325.2060 0001411  97.2957 298.9507 15.06382271  3619
STARLINK-2712           
1 48674U 21044AN  21243.58334491  .00014426  00000-0  98568-3 0  9995
2 48674  53.0552 323.7112 0001033  83.0482 341.8896 15.06388613 15884
STARLINK-2737           
1 48675U 21044AP  21243.58334491  .00014801  00000-0  10111-2 0  9990
2 48675  53.0541 323.7085 0001245  89.2207 355.7059 15.06375896 15828
STARLINK-2746           
1 48676U 21044AQ  21243.25001157  .00011027  00000-0  75810-3 0  9990
2 48676  53.0533 325.2024 0000935  96.2036   0.0644 15.06397014  3613
STARLINK-2719           
1 48677U 21044AR  21243.58334491  .00015765  00000-0  10756-2 0  9997
2 48677  53.0530 323.7076 0000929  91.7763  33.1553 15.06374917 15820
STARLINK-2615           
1 48678U 21044AS  21243.58334491  .00023661  00000-0  16030-2 0  9993
2 48678  53.0536 323.7096 0001051  92.7454  52.1321 15.06377781 15820
STARLINK-2648           
1 48679U 21044AT  21243.25001157  .00007366  00000-0  51287-3 0  9996
2 48679  53.0538 325.2040 0001091 116.7578  39.5330 15.06399193  3598
STARLINK-2649           
1 48680U 21044AU  21243.25001157  .00006593  00000-0  46139-3 0  9999
2 48680  53.0530 325.2028 0001329  98.0924  78.1150 15.06376091  3590
STARLINK-2725           
1 48681U 21044AV  21243.25001157 -.00063351  00000-0 -44837-3 0  9990
2 48681  53.0466 305.2415 0004007  10.1479  72.1063 15.73284736  3712
STARLINK-2743           
1 48682U 21044AW  21243.25001157  .00010541  00000-0  79268-4 0  9999
2 48682  53.0464 305.2388 0004085   7.6890  75.0550 15.73243813 16059
STARLINK-2756           
1 48683U 21044AX  21243.58334491  .00073194  00000-0  52115-3 0  9990
2 48683  53.0461 303.5837 0004296   9.8657 162.5359 15.73197760 16100
STARLINK-2741           
1 48684U 21044AY  21243.25001157 -.01112013  00000-0 -12364-1 0  9992
2 48684  53.0456 305.3540 0001178  53.4852 336.4335 15.64760421 16111
STARLINK-2751           
1 48685U 21044AZ  21243.58334491  .00073801  00000-0  52501-3 0  9996
2 48685  53.0463 303.5840 0004523   4.4481 169.2451 15.73213979 16105
STARLINK-2629           
1 48686U 21044BA  21243.25001157  .00012639  00000-0  94190-4 0  9994
2 48686  53.0464 305.2329 0004050   5.4771  79.8755 15.73231247  3710
STARLINK-2627           
1 48687U 21044BB  21243.25001157 -.00066419  00000-0 -46996-3 0  9992
2 48687  53.0463 305.2302 0003983   8.2783  77.7540 15.73310305  3700
STARLINK-2742           
1 48688U 21044BC  21243.25001157  .00010304  00000-0  77661-4 0  9997
2 48688  53.0462 305.2286 0004395   0.5559  86.1024 15.73221614  3711
